{
  "norad_id": 66913,
  "name": "2025-284A",
  "history": [
    {
      "epoch": "2026-03-28T21:56:31.949088Z",
      "apogee_km": 911.8888610549457,
      "perigee_km": 894.2803915471968,
      "latitude_deg": -3.698385965200139e-06,
      "longitude_deg": -142.3507922188459,
      "height_km": 906.3474035624121,
      "semi_major_axis_km": 7281.2216263010705,
      "eccentricity": 0.00120917,
      "inclination_deg": 80.4092,
      "raan_deg": 13.1102,
      "arg_perigee_deg": 92.8454,
      "mean_anomaly_deg": 267.4091,
      "mean_motion_rev_day": 13.97321645
    },
    {
      "epoch": "2026-03-29T04:48:58.256064Z",
      "apogee_km": 911.8905821513426,
      "perigee_km": 894.2773086843772,
      "latitude_deg": -1.2851732566491171e-05,
      "longitude_deg": 113.95848982363745,
      "height_km": 906.235753314493,
      "semi_major_axis_km": 7281.220945417859,
      "eccentricity": 0.0012095,
      "inclination_deg": 80.4092,
      "raan_deg": 12.8114,
      "arg_perigee_deg": 92.1223,
      "mean_anomaly_deg": 268.1323,
      "mean_motion_rev_day": 13.97321841
    },
    {
      "epoch": "2026-03-30T03:09:23.738400Z",
      "apogee_km": 911.8953184836355,
      "perigee_km": 894.2703976951443,
      "latitude_deg": 1.5341768549789982e-05,
      "longitude_deg": 136.96383061124732,
      "height_km": 905.8741874010992,
      "semi_major_axis_km": 7281.219858089389,
      "eccentricity": 0.0012103,
      "inclination_deg": 80.4093,
      "raan_deg": 11.8404,
      "arg_perigee_deg": 89.7775,
      "mean_anomaly_deg": 270.4773,
      "mean_motion_rev_day": 13.97322154
    },
    {
      "epoch": "2026-03-30T04:52:30.312768Z",
      "apogee_km": 911.8953493308418,
      "perigee_km": 894.2701375710549,
      "latitude_deg": 1.6594065562679916e-05,
      "longitude_deg": 111.04116170971874,
      "height_km": 905.8457816310976,
      "semi_major_axis_km": 7281.219743450948,
      "eccentricity": 0.00121032,
      "inclination_deg": 80.4093,
      "raan_deg": 11.7657,
      "arg_perigee_deg": 89.5936,
      "mean_anomaly_deg": 270.6612,
      "mean_motion_rev_day": 13.97322187
    },
    {
      "epoch": "2026-03-30T13:28:03.182880Z",
      "apogee_km": 911.8958608994744,
      "perigee_km": 894.2686116260211,
      "latitude_deg": -6.079041114086298e-05,
      "longitude_deg": -18.572089637801927,
      "height_km": 905.7067488856676,
      "semi_major_axis_km": 7281.2192362627475,
      "eccentricity": 0.00121046,
      "inclination_deg": 80.4093,
      "raan_deg": 11.3923,
      "arg_perigee_deg": 88.693,
      "mean_anomaly_deg": 271.5617,
      "mean_motion_rev_day": 13.97322333
    },
    {
      "epoch": "2026-03-30T22:03:36.052128Z",
      "apogee_km": 911.9017125601968,
      "perigee_km": 894.2620860303869,
      "latitude_deg": 1.226574805715515e-05,
      "longitude_deg": -148.18541208873637,
      "height_km": 905.569682575638,
      "semi_major_axis_km": 7281.2188992952915,
      "eccentricity": 0.00121131,
      "inclination_deg": 80.4094,
      "raan_deg": 11.0188,
      "arg_perigee_deg": 87.8056,
      "mean_anomaly_deg": 272.4492,
      "mean_motion_rev_day": 13.9732243
    },
    {
      "epoch": "2026-03-31T20:24:01.502496Z",
      "apogee_km": 911.9170370462743,
      "perigee_km": 894.2440658054529,
      "latitude_deg": -6.822201566789271e-06,
      "longitude_deg": -125.1799449551156,
      "height_km": 905.2109187824126,
      "semi_major_axis_km": 7281.217551425863,
      "eccentricity": 0.0012136,
      "inclination_deg": 80.4094,
      "raan_deg": 10.0478,
      "arg_perigee_deg": 85.4884,
      "mean_anomaly_deg": 274.7663,
      "mean_motion_rev_day": 13.97322818
    },
    {
      "epoch": "2026-04-01T20:27:33.497856Z",
      "apogee_km": 911.9297583639973,
      "perigee_km": 894.2291211988877,
      "latitude_deg": -3.058739662544012e-06,
      "longitude_deg": -128.09712046530282,
      "height_km": 904.8267472093015,
      "semi_major_axis_km": 7281.216439781442,
      "eccentricity": 0.0012155,
      "inclination_deg": 80.4094,
      "raan_deg": 9.002,
      "arg_perigee_deg": 83.0026,
      "mean_anomaly_deg": 277.2517,
      "mean_motion_rev_day": 13.97323138
    },
    {
      "epoch": "2026-04-02T18:47:58.892064Z",
      "apogee_km": 911.9439753754395,
      "perigee_km": 894.2113052404329,
      "latitude_deg": -4.1682699136534275e-05,
      "longitude_deg": -105.09142253259523,
      "height_km": 904.469374442442,
      "semi_major_axis_km": 7281.214640307936,
      "eccentricity": 0.0012177,
      "inclination_deg": 80.4094,
      "raan_deg": 8.031,
      "arg_perigee_deg": 80.6933,
      "mean_anomaly_deg": 279.5604,
      "mean_motion_rev_day": 13.97323656
    },
    {
      "epoch": "2026-04-02T22:14:12.024384Z",
      "apogee_km": 911.9407326969585,
      "perigee_km": 894.2140337838091,
      "latitude_deg": -4.78369551119193e-05,
      "longitude_deg": -156.93669326921776,
      "height_km": 904.4143853778736,
      "semi_major_axis_km": 7281.2143832403835,
      "eccentricity": 0.00121729,
      "inclination_deg": 80.4095,
      "raan_deg": 7.8816,
      "arg_perigee_deg": 80.3311,
      "mean_anomaly_deg": 279.9224,
      "mean_motion_rev_day": 13.9732373
    },
    {
      "epoch": "2026-04-03T18:51:30.817440Z",
      "apogee_km": 911.9421424088005,
      "perigee_km": 894.2094767323733,
      "latitude_deg": -2.075645589216052e-05,
      "longitude_deg": -108.00820392906785,
      "height_km": 904.0901869363696,
      "semi_major_axis_km": 7281.212809570587,
      "eccentricity": 0.0012177,
      "inclination_deg": 80.4094,
      "raan_deg": 6.9853,
      "arg_perigee_deg": 78.2111,
      "mean_anomaly_deg": 282.0415,
      "mean_motion_rev_day": 13.97324183
    },
    {
      "epoch": "2026-04-04T20:38:09.267072Z",
      "apogee_km": 911.9397401195811,
      "perigee_km": 894.2099892290989,
      "latitude_deg": -8.413196427652031e-05,
      "longitude_deg": -136.84746024386155,
      "height_km": 903.6821890058221,
      "semi_major_axis_km": 7281.211864674339,
      "eccentricity": 0.0012175,
      "inclination_deg": 80.4094,
      "raan_deg": 5.8649,
      "arg_perigee_deg": 75.5048,
      "mean_anomaly_deg": 284.7462,
      "mean_motion_rev_day": 13.97324455
    },
    {
      "epoch": "2026-04-05T13:49:14.884608Z",
      "apogee_km": 911.9382496073586,
      "perigee_km": 894.2095204718107,
      "latitude_deg": 7.600600069750093e-05,
      "longitude_deg": -36.073499400675814,
      "height_km": 903.4174177594437,
      "semi_major_axis_km": 7281.210885039584,
      "eccentricity": 0.00121743,
      "inclination_deg": 80.4093,
      "raan_deg": 5.118,
      "arg_perigee_deg": 73.734,
      "mean_anomaly_deg": 286.516,
      "mean_motion_rev_day": 13.97324737
    },
    {
      "epoch": "2026-04-05T20:41:41.122464Z",
      "apogee_km": 911.934871740933,
      "perigee_km": 894.212405047082,
      "latitude_deg": 2.7812556489701712e-05,
      "longitude_deg": -139.76393571322527,
      "height_km": 903.3117476000903,
      "semi_major_axis_km": 7281.210638394007,
      "eccentricity": 0.001217,
      "inclination_deg": 80.4093,
      "raan_deg": 4.8192,
      "arg_perigee_deg": 73.0157,
      "mean_anomaly_deg": 287.2337,
      "mean_motion_rev_day": 13.97324808
    },
    {
      "epoch": "2026-04-06T03:34:07.360320Z",
      "apogee_km": 911.9316946923664,
      "perigee_km": 894.2149081627267,
      "latitude_deg": -1.1462800116962953e-05,
      "longitude_deg": 116.54562937058401,
      "height_km": 903.2078092151262,
      "semi_major_axis_km": 7281.210301427546,
      "eccentricity": 0.00121661,
      "inclination_deg": 80.4093,
      "raan_deg": 4.5204,
      "arg_perigee_deg": 72.3071,
      "mean_anomaly_deg": 287.9417,
      "mean_motion_rev_day": 13.97324905
    },
    {
      "epoch": "2026-04-07T19:05:38.185440Z",
      "apogee_km": 911.9195117521103,
      "perigee_km": 894.2232628875672,
      "latitude_deg": 5.537457284187136e-05,
      "longitude_deg": -119.67404532379066,
      "height_km": 902.6098946011575,
      "semi_major_axis_km": 7281.208387319838,
      "eccentricity": 0.0012152,
      "inclination_deg": 80.4091,
      "raan_deg": 2.8024,
      "arg_perigee_deg": 68.1782,
      "mean_anomaly_deg": 292.0671,
      "mean_motion_rev_day": 13.97325456
    },
    {
      "epoch": "2026-04-08T13:59:50.300448Z",
      "apogee_km": 911.9153030781008,
      "perigee_km": 894.2256095629709,
      "latitude_deg": -1.7979731450693127e-05,
      "longitude_deg": -44.82247288036096,
      "height_km": 902.328464847092,
      "semi_major_axis_km": 7281.207456320536,
      "eccentricity": 0.00121475,
      "inclination_deg": 80.409,
      "raan_deg": 1.9808,
      "arg_perigee_deg": 66.1949,
      "mean_anomaly_deg": 294.0484,
      "mean_motion_rev_day": 13.97325724
    },
    {
      "epoch": "2026-04-09T19:12:41.730336Z",
      "apogee_km": 911.9166759036407,
      "perigee_km": 894.2218883967589,
      "latitude_deg": 4.7904177215627854e-05,
      "longitude_deg": -125.50624471804213,
      "height_km": 901.9116961428924,
      "semi_major_axis_km": 7281.2062821501995,
      "eccentricity": 0.0012151,
      "inclination_deg": 80.409,
      "raan_deg": 0.7111,
      "arg_perigee_deg": 63.22,
      "mean_anomaly_deg": 297.0203,
      "mean_motion_rev_day": 13.97326062
    }
  ]
}